[{"OBJECT_NAME":"STARLINK-33683","OBJECT_ID":"2025-076E","EPOCH":"2026-03-09T01:56:45.960864","MEAN_MOTION":15.27589005,"ECCENTRICITY":0.00021679,"INCLINATION":43.0035,"RA_OF_ASC_NODE":325.4548,"ARG_OF_PERICENTER":261.0365,"MEAN_ANOMALY":99.0241,"EPHEMERIS_TYPE":0,"CLASSIFICATION_TYPE":"U","NORAD_CAT_ID":63573,"ELEMENT_SET_NO":999,"REV_AT_EPOCH":5173,"BSTAR":0.0010565588,"MEAN_MOTION_DOT":0.00028935,"MEAN_MOTION_DDOT":0},{"OBJECT_NAME":"SL-4 R\/B","OBJECT_ID":"2014-021B","EPOCH":"2026-03-09T02:37:43.173408","MEAN_MOTION":15.39160447,"ECCENTRICITY":0.00975963,"INCLINATION":51.6078,"RA_OF_ASC_NODE":340.109,"ARG_OF_PERICENTER":100.9217,"MEAN_ANOMALY":260.2766,"EPHEMERIS_TYPE":0,"CLASSIFICATION_TYPE":"U","NORAD_CAT_ID":39679,"ELEMENT_SET_NO":999,"REV_AT_EPOCH":65618,"BSTAR":0.00043042763,"MEAN_MOTION_DOT":0.00019652,"MEAN_MOTION_DDOT":0}]
